OBJECT_NAME,OBJECT_ID,EPOCH,MEAN_MOTION,ECCENTRICITY,INCLINATION,RA_OF_ASC_NODE,ARG_OF_PERICENTER,MEAN_ANOMALY,EPHEMERIS_TYPE,CLASSIFICATION_TYPE,NORAD_CAT_ID,ELEMENT_SET_NO,REV_AT_EPOCH,BSTAR,MEAN_MOTION_DOT,MEAN_MOTION_DDOT
CUBEBUG-2 (LO-74),2013-066AA,2026-06-03T07:55:56.668800,14.93641817,.00594532,97.8904,103.2522,73.9566,286.8190,0,U,39440,999,67492,.47122985E-3,.5093E-4,0
FUNCUBE-1 (AO-73),2013-066AE,2026-06-03T17:33:37.044000,15.09317269,.00346977,97.8276,125.8984,248.4796,111.2732,0,U,39444,999,67763,.51138585E-3,.8204E-4,0
UWE-3,2013-066AG,2026-06-03T10:42:20.999232,14.96911221,.00494786,97.8706,110.4297,7.6789,352.5179,0,U,39446,999,67552,.40386206E-3,.4691E-4,0
UNISAT-6,2014-033C,2026-06-03T16:27:54.809856,14.88166007,.0046407,97.7869,307.6374,112.5348,248.0791,0,U,40012,999,64415,.38451616E-3,.3559E-4,0
DUCHIFAT-1,2014-033M,2026-06-02T16:22:25.685472,15.61688703,.00050954,98.0473,210.8393,141.7306,218.4313,0,U,40021,999,65348,.11397187E-2,.99172E-3,0
QB50P1,2014-033R,2026-06-03T13:44:21.385536,15.18040602,.00070591,98.0967,164.7661,272.3380,87.7044,0,U,40025,999,65096,.48089613E-3,.9724E-4,0
LILACSAT-2,2015-049K,2026-06-03T22:03:42.094944,15.50986191,.00053913,97.4655,191.2599,309.9564,50.1214,0,U,40908,999,59369,.3260866E-3,.18852E-3,0
FOX-1A (AO-85),2015-058D,2026-06-03T20:53:10.788864,14.90897563,.01297539,64.7762,320.3664,61.8150,299.5996,0,U,40967,999,11158,.30117827E-3,.3322E-4,0
CAS-2T & KS-1Q,2016-066G,2026-06-03T19:17:17.803392,14.44648349,.03422637,98.3818,230.6923,169.9891,190.8353,0,U,41847,999,50286,.26167937E-3,.1811E-4,0
RADFXSAT (FOX-1B),2017-073E,2026-06-03T13:56:13.052832,15.12470589,.01516341,97.4712,22.0755,16.2859,344.3167,0,U,43017,999,46333,.49801308E-3,.11424E-3,0
DIWATA-2B,2018-084H,2026-06-03T21:34:09.960096,15.00387286,.00117625,98.1150,350.5322,214.6926,145.3530,0,U,43678,999,41422,.27489812E-3,.3392E-4,0
ES'HAIL 2,2018-090A,2026-06-03T20:34:26.033664,1.00272337,.00019708,0.0179,1.1383,105.3537,120.2160,0,U,43700,999,2754,0,.156E-5,0
FOX-1CLIFF (AO-95),2018-099N,2026-06-03T15:21:57.123072,15.26406805,.00093969,97.4392,214.9391,44.7441,315.4554,0,U,43770,999,41115,.5043316E-3,.1308E-3,0
ITASAT,2018-099AE,2026-06-03T21:53:48.120864,15.18878726,.00135156,97.4030,206.6900,45.4174,314.8161,0,U,43786,999,41089,.35736533E-3,.7403E-4,0
JY1SAT (JO-97),2018-099AX,2026-06-02T20:52:48.336096,15.33171132,.00043716,97.4135,216.6595,332.8214,27.2798,0,U,43803,999,41143,.55972049E-3,.17885E-3,0
UWE-4,2018-111E,2026-06-03T08:40:07.131360,15.45215882,.00082433,97.5860,82.1246,33.3192,326.8573,0,U,43880,999,40864,.73362008E-3,.349E-3,0
TIANYAN 01,2019-093C,2026-06-03T22:02:54.759840,14.86496964,.00146577,97.7536,227.4740,126.4235,233.8335,0,U,44881,999,34944,.98440633E-4,.819E-5,0
RS-44 & BREEZE-KM R/B,2019-096E,2026-06-03T15:16:01.820352,12.79748576,.02175707,82.5219,348.7118,175.7893,184.5107,0,U,44909,999,30061,-.37224901E-4,.2E-7,0
SALSAT,2020-068K,2026-06-03T12:56:47.029344,15.29589697,.00094244,97.8849,156.7757,1.6764,358.4505,0,U,46495,999,31327,.31027905E-3,.8826E-4,0
XW-3 (CAS-9),2021-131B,2026-06-03T22:25:25.954752,14.41344332,.00050327,98.4979,247.3957,127.6930,232.4716,0,U,50466,999,23320,.16365076E-3,.486E-5,0
GREENCUBE (IO-117),2022-080E,2026-06-01T11:09:37.753056,6.42583280,.00088692,70.1435,303.7143,293.3663,66.6064,0,U,53109,999,9105,0,-.3E-7,0
UMKA 1 (RS40S),2023-091G,2026-06-03T22:24:59.692608,15.20656391,.00134644,97.5052,213.6834,159.6750,200.5024,0,U,57172,999,16199,.30225704E-3,.6582E-4,0
CUBESX-HSE 3 (RS42S),2023-091N,2026-06-03T21:45:12.268800,15.30860578,.00120411,97.5094,220.3290,135.7768,224.4438,0,U,57178,999,16239,.49086134E-3,.14603E-3,0
MONITOR-3 (RS58S),2023-091Q,2026-06-03T20:04:22.390464,15.27556971,.00128512,97.5086,218.1868,142.2665,217.9478,0,U,57180,999,16225,.42929842E-3,.11528E-3,0
MONITOR-4 (RS57S),2023-091S,2026-06-03T21:09:40.913856,15.27655842,.00127964,97.5079,218.2031,142.4768,217.7366,0,U,57182,999,16226,.43931918E-3,.11834E-3,0
MONITOR-2 (RS39S),2023-091U,2026-06-03T22:31:50.566080,15.18779671,.00120561,97.5075,213.3083,152.1856,208.0026,0,U,57184,999,16194,.2509199E-3,.5158E-4,0
SVYATOBOR 1 (RS60S),2023-091X,2026-06-03T21:12:16.629120,15.26375913,.00107059,97.5090,218.6290,134.5692,225.6422,0,U,57187,999,16228,.38110167E-3,.9855E-4,0
VIZARD-METEO (RS38S),2023-091Z,2026-06-03T22:06:42.131808,15.35581284,.00087526,97.5093,224.1448,116.8088,243.4051,0,U,57189,999,16265,.544707E-3,.18804E-3,0
POLYTECH-UNIVERSE 3 (RS46S),2023-091AB,2026-06-03T21:38:39.884928,15.18978972,.0015932,97.5049,212.7762,170.0430,190.1124,0,U,57191,999,16193,.282424E-3,.5856E-4,0
UTMN 2 (RS27S),2023-091AP,2026-06-03T22:21:02.415744,15.31709132,.00094402,97.5090,221.9718,122.9547,237.2603,0,U,57203,999,16251,.48082768E-3,.14674E-3,0
