CUBEBUG-2 (LO-74)       
1 39440U 13066AA  26154.33051700  .00005093  00000+0  47123-3 0  9999
2 39440  97.8904 103.2522 0059453  73.9566 286.8190 14.93641817674922
FUNCUBE-1 (AO-73)       
1 39444U 13066AE  26154.73167875  .00008204  00000+0  51139-3 0  9997
2 39444  97.8276 125.8984 0034697 248.4796 111.2732 15.09317269677630
UWE-3                   
1 39446U 13066AG  26154.44607638  .00004691  00000+0  40386-3 0  9991
2 39446  97.8706 110.4297 0049478   7.6789 352.5179 14.96911221675521
UNISAT-6                
1 40012U 14033C   26154.68605104  .00003559  00000+0  38452-3 0  9992
2 40012  97.7869 307.6374 0046407 112.5348 248.0791 14.88166007644152
DUCHIFAT-1              
1 40021U 14033M   26153.68224173  .00099172  00000+0  11397-2 0  9998
2 40021  98.0473 210.8393 0005095 141.7306 218.4313 15.61688703653480
QB50P1                  
1 40025U 14033R   26154.57246974  .00009724  00000+0  48090-3 0  9999
2 40025  98.0967 164.7661 0007059 272.3380  87.7044 15.18040602650962
LILACSAT-2              
1 40908U 15049K   26154.91923721  .00018852  00000+0  32609-3 0  9998
2 40908  97.4655 191.2599 0005391 309.9564  50.1214 15.50986191593699
FOX-1A (AO-85)          
1 40967U 15058D   26154.87026376  .00003322  00000+0  30118-3 0  9997
2 40967  64.7762 320.3664 0129753  61.8150 299.5996 14.90897563111589
CAS-2T & KS-1Q          
1 41847U 16066G   26154.80367828  .00001811  00000+0  26168-3 0  9999
2 41847  98.3818 230.6923 0342263 169.9891 190.8353 14.44648349502868
RADFXSAT (FOX-1B)       
1 43017U 17073E   26154.58070663  .00011424  00000+0  49801-3 0  9992
2 43017  97.4712  22.0755 0151634  16.2859 344.3167 15.12470589463338
DIWATA-2B               
1 43678U 18084H   26154.89872639  .00003392  00000+0  27490-3 0  9990
2 43678  98.1150 350.5322 0011762 214.6926 145.3530 15.00387286414225
ES'HAIL 2               
1 43700U 18090A   26154.85724576  .00000156  00000+0  00000+0 0  9994
2 43700   0.0179   1.1383 0001970 105.3537 120.2160  1.00272337 27545
FOX-1CLIFF (AO-95)      
1 43770U 18099N   26154.64024448  .00013080  00000+0  50433-3 0  9997
2 43770  97.4392 214.9391 0009396  44.7441 315.4554 15.26406805411153
ITASAT                  
1 43786U 18099AE  26154.91236251  .00007403  00000+0  35737-3 0  9993
2 43786  97.4030 206.6900 0013515  45.4174 314.8161 15.18878726410895
JY1SAT (JO-97)          
1 43803U 18099AX  26153.87000389  .00017885  00000+0  55972-3 0  9996
2 43803  97.4135 216.6595 0004371 332.8214  27.2798 15.33171132411436
UWE-4                   
1 43880U 18111E   26154.36119365  .00034900  00000+0  73362-3 0  9996
2 43880  97.5860  82.1246 0008243  33.3192 326.8573 15.45215882408648
TIANYAN 01              
1 44881U 19093C   26154.91868935  .00000819  00000+0  98441-4 0  9991
2 44881  97.7536 227.4740 0014657 126.4235 233.8335 14.86496964349444
RS-44 & BREEZE-KM R/B   
1 44909U 19096E   26154.63613218  .00000002  00000+0 -37225-4 0  9994
2 44909  82.5219 348.7118 0217570 175.7893 184.5107 12.79748576300611
SALSAT                  
1 46495U 20068K   26154.53943321  .00008826  00000+0  31028-3 0  9992
2 46495  97.8849 156.7757 0009424   1.6764 358.4505 15.29589697313273
XW-3 (CAS-9)            
1 50466U 21131B   26154.93432818  .00000486  00000+0  16365-3 0  9996
2 50466  98.4979 247.3957 0005032 127.6930 232.4716 14.41344332233208
GREENCUBE (IO-117)      
1 53109U 22080E   26152.46502029 -.00000003  00000+0  00000+0 0  9996
2 53109  70.1435 303.7143 0008869 293.3663  66.6064  6.42583280 91055
UMKA 1 (RS40S)          
1 57172U 23091G   26154.93402422  .00006582  00000+0  30226-3 0  9997
2 57172  97.5052 213.6834 0013464 159.6750 200.5024 15.20656391161997
CUBESX-HSE 3 (RS42S)    
1 57178U 23091N   26154.90639200  .00014603  00000+0  49086-3 0  9993
2 57178  97.5094 220.3290 0012041 135.7768 224.4438 15.30860578162398
MONITOR-3 (RS58S)       
1 57180U 23091Q   26154.83637026  .00011528  00000+0  42930-3 0  9996
2 57180  97.5086 218.1868 0012851 142.2665 217.9478 15.27556971162257
MONITOR-4 (RS57S)       
1 57182U 23091S   26154.88172354  .00011834  00000+0  43932-3 0  9994
2 57182  97.5079 218.2031 0012796 142.4768 217.7366 15.27655842162260
MONITOR-2 (RS39S)       
1 57184U 23091U   26154.93877970  .00005158  00000+0  25092-3 0  9997
2 57184  97.5075 213.3083 0012056 152.1856 208.0026 15.18779671161943
SVYATOBOR 1 (RS60S)     
1 57187U 23091X   26154.88352580  .00009855  00000+0  38110-3 0  9992
2 57187  97.5090 218.6290 0010705 134.5692 225.6422 15.26375913162285
VIZARD-METEO (RS38S)    
1 57189U 23091Z   26154.92132097  .00018804  00000+0  54471-3 0  9990
2 57189  97.5093 224.1448 0008752 116.8088 243.4051 15.35581284162655
POLYTECH-UNIVERSE 3 (R*)
1 57191U 23091AB  26154.90185052  .00005856  00000+0  28242-3 0  9990
2 57191  97.5049 212.7762 0015932 170.0430 190.1124 15.18978972161936
UTMN 2 (RS27S)          
1 57203U 23091AP  26154.93127796  .00014674  00000+0  48083-3 0  9991
2 57203  97.5090 221.9718 0009440 122.9547 237.2603 15.31709132162516
